{"type": "FeatureCollection", "features": [ {"type": "Feature", "properties": {"norad_id": 42969, "name": "SENTINEL-5P", "group": "resource", "lat": 59.934287536426545, "lon": -86.76628042546693, "alt_km": 820.4880593323451, "timestamp": "2025-12-16T03:53:26.716422+00:00", "meta": {"OBJECT_NAME": "SENTINEL-5P", "OBJECT_ID": "2017-064A", "EPOCH": "2025-12-15T07:18:13.880448", "MEAN_MOTION": 14.19518247, "ECCENTRICITY": 9.907e-05, "INCLINATION": 98.7786, "RA_OF_ASC_NODE": 287.8657, "ARG_OF_PERICENTER": 88.9179, "MEAN_ANOMALY": 271.211, "EPHEMERIS_TYPE": 0, "CLASSIFICATION_TYPE": "U", "NORAD_CAT_ID": 42969, "ELEMENT_SET_NO": 999, "REV_AT_EPOCH": 42347, "BSTAR": 6.4045457e-05, "MEAN_MOTION_DOT": 9.1e-07, "MEAN_MOTION_DDOT": 0}, "tle": {"line1": "1 42969U 17064A   25349.30432732  .00000091  00000+0  64045-4 0  9997", "line2": "2 42969  98.7786 287.8657 0000990  88.9179 271.2110 14.19518247423476"}}, "geometry": {"type": "Point", "coordinates": [-86.76628042546693, 59.934287536426545]}}, {"type": "Feature", "properties": {"norad_id": 42987, "name": "SKYSAT-C11", "group": "resource", "lat": -50.189973451784034, "lon": 136.72625175336154, "alt_km": 431.3948835109841, "timestamp": "2025-12-16T03:53:26.716434+00:00", "meta": {"OBJECT_NAME": "SKYSAT-C11", "OBJECT_ID": "2017-068A", "EPOCH": "2025-12-15T07:56:09.894912", "MEAN_MOTION": 15.47564558, "ECCENTRICITY": 0.00010987, "INCLINATION": 97.4133, "RA_OF_ASC_NODE": 126.8866, "ARG_OF_PERICENTER": 102.3805, "MEAN_ANOMALY": 257.7568, "EPHEMERIS_TYPE": 0, "CLASSIFICATION_TYPE": "U", "NORAD_CAT_ID": 42987, "ELEMENT_SET_NO": 999, "REV_AT_EPOCH": 45471, "BSTAR": 0.00031244389, "MEAN_MOTION_DOT": 0.00016002, "MEAN_MOTION_DDOT": 0}, "tle": {"line1": "1 42987U 17068A   25349.33067008  .00016002  00000+0  31244-3 0  9997", "line2": "2 42987  97.4133 126.8866 0001098 102.3805 257.7568 15.47564558454714"}}, "geometry": {"type": "Point", "coordinates": [136.72625175336154, -50.189973451784034]}}, {"type": "Feature", "properties": {"norad_id": 42988, "name": "SKYSAT-C10", "group": "resource", "lat": -20.100270441902445, "lon": -61.713724581989254, "alt_km": 475.8085738442014, "timestamp": "2025-12-16T03:53:26.716445+00:00", "meta": {"OBJECT_NAME": "SKYSAT-C10", "OBJECT_ID": "2017-068B", "EPOCH": "2025-12-15T08:12:38.966688", "MEAN_MOTION": 15.32123336, "ECCENTRICITY": 0.00054195, "INCLINATION": 97.4254, "RA_OF_ASC_NODE": 120.1998, "ARG_OF_PERICENTER": 96.3008, "MEAN_ANOMALY": 263.8851, "EPHEMERIS_TYPE": 0, "CLASSIFICATION_TYPE": "U", "NORAD_CAT_ID": 42988, "ELEMENT_SET_NO": 999, "REV_AT_EPOCH": 45419, "BSTAR": 0.00024944767, "MEAN_MOTION_DOT": 7.661e-05, "MEAN_MOTION_DDOT": 0}, "tle": {"line1": "1 42988U 17068B   25349.34211767  .00007661  00000+0  24945-3 0  9993", "line2": "2 42988  97.4254 120.1998 0005419  96.3008 263.8851 15.32123336454194"}}, "geometry": {"type": "Point", "coordinates": [-61.713724581989254, -20.100270441902445]}}, {"type": "Feature", "properties": {"norad_id": 42989, "name": "SKYSAT-C9", "group": "resource", "lat": 79.91303949263686, "lon": -12.466049185241136, "alt_km": 443.374846598108, "timestamp": "2025-12-16T03:53:26.716455+00:00", "meta": {"OBJECT_NAME": "SKYSAT-C9", "OBJECT_ID": "2017-068C", "EPOCH": "2025-12-15T08:42:39.271392", "MEAN_MOTION": 15.361228, "ECCENTRICITY": 0.0010609, "INCLINATION": 97.4184, "RA_OF_ASC_NODE": 119.637, "ARG_OF_PERICENTER": 79.2076, "MEAN_ANOMALY": 281.0361, "EPHEMERIS_TYPE": 0, "CLASSIFICATION_TYPE": "U", "NORAD_CAT_ID": 42989, "ELEMENT_SET_NO": 999, "REV_AT_EPOCH": 45448, "BSTAR": 0.00026962678, "MEAN_MOTION_DOT": 9.424e-05, "MEAN_MOTION_DDOT": 0}, "tle": {"line1": "1 42989U 17068C   25349.36295453  .00009424  00000+0  26963-3 0  9991", "line2": "2 42989  97.4184 119.6370 0010609  79.2076 281.0361 15.36122800454485"}}, "geometry": {"type": "Point", "coordinates": [-12.466049185241136, 79.91303949263686]}}, {"type": "Feature", "properties": {"norad_id": 42990, "name": "SKYSAT-C8", "group": "resource", "lat": 28.680439892754183, "lon": 116.08415661960915, "alt_km": 465.1221349252892, "timestamp": "2025-12-16T03:53:26.716466+00:00", "meta": {"OBJECT_NAME": "SKYSAT-C8", "OBJECT_ID": "2017-068D", "EPOCH": "2025-12-15T08:57:57.451104", "MEAN_MOTION": 15.32983466, "ECCENTRICITY": 0.00014123, "INCLINATION": 97.4276, "RA_OF_ASC_NODE": 119.3848, "ARG_OF_PERICENTER": 335.2622, "MEAN_ANOMALY": 24.8553, "EPHEMERIS_TYPE": 0, "CLASSIFICATION_TYPE": "U", "NORAD_CAT_ID": 42990, "ELEMENT_SET_NO": 999, "REV_AT_EPOCH": 45411, "BSTAR": 0.00026742726, "MEAN_MOTION_DOT": 8.442e-05, "MEAN_MOTION_DDOT": 0}, "tle": {"line1": "1 42990U 17068D   25349.37358161  .00008442  00000+0  26743-3 0  9995", "line2": "2 42990  97.4276 119.3848 0001412 335.2622  24.8553 15.32983466454115"}}, "geometry": {"type": "Point", "coordinates": [116.08415661960915, 28.680439892754183]}}, {"type": "Feature", "properties": {"norad_id": 42991, "name": "SKYSAT-C7", "group": "resource", "lat": -56.44743783673473, "lon": -70.13062506840457, "alt_km": 480.8148035692793, "timestamp": "2025-12-16T03:53:26.716476+00:00", "meta": {"OBJECT_NAME": "SKYSAT-C7", "OBJECT_ID": "2017-068E", "EPOCH": "2025-12-15T08:03:10.786464", "MEAN_MOTION": 15.32385972, "ECCENTRICITY": 0.00075099, "INCLINATION": 97.4282, "RA_OF_ASC_NODE": 120.3856, "ARG_OF_PERICENTER": 48.811, "MEAN_ANOMALY": 311.3779, "EPHEMERIS_TYPE": 0, "CLASSIFICATION_TYPE": "U", "NORAD_CAT_ID": 42991, "ELEMENT_SET_NO": 999, "REV_AT_EPOCH": 45417, "BSTAR": 0.00025308879, "MEAN_MOTION_DOT": 7.842e-05, "MEAN_MOTION_DDOT": 0}, "tle": {"line1": "1 42991U 17068E   25349.33554151  .00007842  00000+0  25309-3 0  9999", "line2": "2 42991  97.4282 120.3856 0007509  48.8110 311.3779 15.32385972454174"}}, "geometry": {"type": "Point", "coordinates": [-70.13062506840457, -56.44743783673473]}}, {"type": "Feature", "properties": {"norad_id": 42992, "name": "SKYSAT-C6", "group": "resource", "lat": -16.300960183635155, "lon": 123.83848250683343, "alt_km": 476.0286066322906, "timestamp": "2025-12-16T03:53:26.716487+00:00", "meta": {"OBJECT_NAME": "SKYSAT-C6", "OBJECT_ID": "2017-068F", "EPOCH": "2025-12-15T07:34:39.906624", "MEAN_MOTION": 15.31546551, "ECCENTRICITY": 0.00051315, "INCLINATION": 97.4317, "RA_OF_ASC_NODE": 120.8023, "ARG_OF_PERICENTER": 75.4052, "MEAN_ANOMALY": 284.7758, "EPHEMERIS_TYPE": 0, "CLASSIFICATION_TYPE": "U", "NORAD_CAT_ID": 42992, "ELEMENT_SET_NO": 999, "REV_AT_EPOCH": 45415, "BSTAR": 0.00026449874, "MEAN_MOTION_DOT": 7.983e-05, "MEAN_MOTION_DDOT": 0}, "tle": {"line1": "1 42992U 17068F   25349.31573966  .00007983  00000+0  26450-3 0  9997", "line2": "2 42992  97.4317 120.8023 0005131  75.4052 284.7758 15.31546551454154"}}, "geometry": {"type": "Point", "coordinates": [123.83848250683343, -16.300960183635155]}}, {"type": "Feature", "properties": {"norad_id": 43111, "name": "CARTOSAT-2F", "group": "resource", "lat": -59.54614986297762, "lon": 60.57166247703951, "alt_km": 515.8214809914089, "timestamp": "2025-12-16T03:53:26.716498+00:00", "meta": {"OBJECT_NAME": "CARTOSAT-2F", "OBJECT_ID": "2018-004A", "EPOCH": "2025-12-15T07:36:26.784288", "MEAN_MOTION": 15.19305978, "ECCENTRICITY": 0.0001162, "INCLINATION": 97.4318, "RA_OF_ASC_NODE": 46.913, "ARG_OF_PERICENTER": 144.807, "MEAN_ANOMALY": 215.3242, "EPHEMERIS_TYPE": 0, "CLASSIFICATION_TYPE": "U", "NORAD_CAT_ID": 43111, "ELEMENT_SET_NO": 999, "REV_AT_EPOCH": 43941, "BSTAR": 0.00023442813, "MEAN_MOTION_DOT": 4.881e-05, "MEAN_MOTION_DDOT": 0}, "tle": {"line1": "1 43111U 18004A   25349.31697667  .00004881  00000+0  23443-3 0  9990", "line2": "2 43111  97.4318  46.9130 0001162 144.8070 215.3242 15.19305978439419"}}, "geometry": {"type": "Point", "coordinates": [60.57166247703951, -59.54614986297762]}}, {"type": "Feature", "properties": {"norad_id": 43259, "name": "GAOFEN-1 02", "group": "resource", "lat": -76.24500757726638, "lon": -167.52473093287293, "alt_km": 647.1828333268159, "timestamp": "2025-12-16T03:53:26.716508+00:00", "meta": {"OBJECT_NAME": "GAOFEN-1 02", "OBJECT_ID": "2018-031A", "EPOCH": "2025-12-15T08:49:48.510912", "MEAN_MOTION": 14.76422822, "ECCENTRICITY": 0.00018955, "INCLINATION": 98.0807, "RA_OF_ASC_NODE": 47.1584, "ARG_OF_PERICENTER": 207.0293, "MEAN_ANOMALY": 153.0818, "EPHEMERIS_TYPE": 0, "CLASSIFICATION_TYPE": "U", "NORAD_CAT_ID": 43259, "ELEMENT_SET_NO": 999, "REV_AT_EPOCH": 41557, "BSTAR": 0.00015520134, "MEAN_MOTION_DOT": 1.027e-05, "MEAN_MOTION_DDOT": 0}, "tle": {"line1": "1 43259U 18031A   25349.36792258  .00001027  00000+0  15520-3 0  9996", "line2": "2 43259  98.0807  47.1584 0001895 207.0293 153.0818 14.76422822415578"}}, "geometry": {"type": "Point", "coordinates": [-167.52473093287293, -76.24500757726638]}}, {"type": "Feature", "properties": {"norad_id": 43260, "name": "GAOFEN-1 03", "group": "resource", "lat": 13.985890292177162, "lon": 45.80159218931566, "alt_km": 641.0920740901965, "timestamp": "2025-12-16T03:53:26.716519+00:00", "meta": {"OBJECT_NAME": "GAOFEN-1 03", "OBJECT_ID": "2018-031B", "EPOCH": "2025-12-15T08:18:31.792320", "MEAN_MOTION": 14.76442267, "ECCENTRICITY": 0.00018518, "INCLINATION": 98.0796, "RA_OF_ASC_NODE": 47.0131, "ARG_OF_PERICENTER": 309.4603, "MEAN_ANOMALY": 50.6442, "EPHEMERIS_TYPE": 0, "CLASSIFICATION_TYPE": "U", "NORAD_CAT_ID": 43260, "ELEMENT_SET_NO": 999, "REV_AT_EPOCH": 41556, "BSTAR": 0.00014788721, "MEAN_MOTION_DOT": 9.77e-06, "MEAN_MOTION_DDOT": 0}, "tle": {"line1": "1 43260U 18031B   25349.34620130  .00000977  00000+0  14789-3 0  9994", "line2": "2 43260  98.0796  47.0131 0001851 309.4603  50.6442 14.76442267415567"}}, "geometry": {"type": "Point", "coordinates": [45.80159218931566, 13.985890292177162]}}]}